{
  "type": "FeatureCollection",
  "generator": "overpass-turbo",
  "copyright": "The data included in this document is from www.openstreetmap.org. The data is made available under ODbL.",
  "timestamp": "2026-09-29T18:24:23Z",
  "features": [
    {
      "type": "Feature",
      "properties": {
        "@id": "way/251744597",
        "addr:city": "Русе",
        "addr:housenumber": "5",
        "addr:postcode": "7018",
        "addr:street": "Зорница",
        "building": "apartments"
      },
      "geometry": {
        "type": "Polygon",
        "coordinates": [
          [
            [
              25.9742985,
              43.8370574
            ],
            [
              25.9742993,
              43.8370213
            ],
            [
              25.9742573,
              43.8370208
            ],
            [
              25.9742602,
              43.8368907
            ],
            [
              25.9742141,
              43.8368901
            ],
            [
              25.9742178,
              43.8367253
            ],
            [
              25.9743138,
              43.8367264
            ],
            [
              25.9743143,
              43.8367062
            ],
            [
              25.9744174,
              43.8367074
            ],
            [
              25.9744182,
              43.8366687
            ],
            [
              25.9746386,
              43.8366713
            ],
            [
              25.9746395,
              43.8366296
            ],
            [
              25.9748952,
              43.8366325
            ],
            [
              25.9748946,
              43.8366601
            ],
            [
              25.9750584,
              43.8366619
            ],
            [
              25.9750575,
              43.8367024
            ],
            [
              25.9751188,
              43.8367031
            ],
            [
              25.9751164,
              43.8368092
            ],
            [
              25.9748652,
              43.8368063
            ],
            [
              25.9748663,
              43.836756
            ],
            [
              25.9746465,
              43.8367534
            ],
            [
              25.9746454,
              43.8368041
            ],
            [
              25.9743971,
              43.8368012
            ],
            [
              25.9743914,
              43.8370585
            ],
            [
              25.9742985,
              43.8370574
            ]
          ]
        ]
      },
      "id": "way/251744597"
    },
    {
      "type": "Feature",
      "properties": {
        "@id": "way/251744598",
        "addr:city": "Русе",
        "addr:housenumber": "1",
        "addr:postcode": "7018",
        "addr:street": "Филип Станиславов",
        "building": "apartments",
        "building:levels": "8",
        "roof:levels": "1"
      },
      "geometry": {
        "type": "Polygon",
        "coordinates": [
          [
            [
              25.9722868,
              43.8365543
            ],
            [
              25.9722818,
              43.8364134
            ],
            [
              25.9723747,
              43.8364116
            ],
            [
              25.9723733,
              43.8363695
            ],
            [
              25.9725807,
              43.8363657
            ],
            [
              25.9725817,
              43.8363939
            ],
            [
              25.9728174,
              43.8363895
            ],
            [
              25.9728183,
              43.8364137
            ],
            [
              25.9730442,
              43.8364096
            ],
            [
              25.9730451,
              43.8364375
            ],
            [
              25.9732619,
              43.8364335
            ],
            [
              25.9732643,
              43.8365008
            ],
            [
              25.9733088,
              43.8365
            ],
            [
              25.9733115,
              43.8365748
            ],
            [
              25.9733608,
              43.8365739
            ],
            [
              25.9733673,
              43.8367591
            ],
            [
              25.9733108,
              43.8367602
            ],
            [
              25.973315,
              43.836879
            ],
            [
              25.9732637,
              43.8368799
            ],
            [
              25.9732654,
              43.8369304
            ],
            [
              25.9731754,
              43.8369321
            ],
            [
              25.9731738,
              43.836887
            ],
            [
              25.973137,
              43.8368877
            ],
            [
              25.973132,
              43.8367455
            ],
            [
              25.9732078,
              43.8367441
            ],
            [
              25.9732023,
              43.8365887
            ],
            [
              25.9731461,
              43.8365897
            ],
            [
              25.9731443,
              43.8365385
            ],
            [
              25.9722868,
              43.8365543
            ]
          ]
        ]
      },
      "id": "way/251744598"
    },
    {
      "type": "Feature",
      "properties": {
        "@id": "way/251744599",
        "addr:city": "Русе",
        "addr:housenumber": "2",
        "addr:postcode": "7018",
        "addr:street": "Филип Станиславов",
        "building": "apartments"
      },
      "geometry": {
        "type": "Polygon",
        "coordinates": [
          [
            [
              25.9744652,
              43.837446
            ],
            [
              25.974467,
              43.8372657
            ],
            [
              25.9745183,
              43.837266
            ],
            [
              25.9745189,
              43.8372097
            ],
            [
              25.974634,
              43.8372103
            ],
            [
              25.9746328,
              43.8373224
            ],
            [
              25.9751232,
              43.837325
            ],
            [
              25.9751227,
              43.8373755
            ],
            [
              25.9751606,
              43.8373757
            ],
            [
              25.9751599,
              43.8374483
            ],
            [
              25.9752041,
              43.8374485
            ],
            [
              25.9752023,
              43.8376278
            ],
            [
              25.9752354,
              43.837628
            ],
            [
              25.9752346,
              43.8377119
            ],
            [
              25.9755808,
              43.8377137
            ],
            [
              25.9755805,
              43.8377474
            ],
            [
              25.9756677,
              43.8377478
            ],
            [
              25.9756652,
              43.8379978
            ],
            [
              25.976148,
              43.8380003
            ],
            [
              25.9761472,
              43.8380757
            ],
            [
              25.9761968,
              43.8380759
            ],
            [
              25.9761953,
              43.8382328
            ],
            [
              25.9764161,
              43.838234
            ],
            [
              25.9764157,
              43.8382711
            ],
            [
              25.9764856,
              43.8382715
            ],
            [
              25.9764845,
              43.8383853
            ],
            [
              25.9759944,
              43.8383827
            ],
            [
              25.9759967,
              43.838148
            ],
            [
              25.975481,
              43.8381453
            ],
            [
              25.975484,
              43.8378376
            ],
            [
              25.9750118,
              43.8378352
            ],
            [
              25.9750156,
              43.8374489
            ],
            [
              25.9744652,
              43.837446
            ]
          ]
        ]
      },
      "id": "way/251744599"
    },
    {
      "type": "Feature",
      "properties": {
        "@id": "way/251744604",
        "addr:city": "Русе",
        "addr:housenumber": "7",
        "addr:postcode": "7018",
        "addr:street": "Слави Шкаров",
        "building": "apartments",
        "building:levels": "7",
        "roof:levels": "1"
      },
      "geometry": {
        "type": "Polygon",
        "coordinates": [
          [
            [
              25.9720653,
              43.8373439
            ],
            [
              25.9720659,
              43.8372414
            ],
            [
              25.9721774,
              43.8372417
            ],
            [
              25.9721777,
              43.8371903
            ],
            [
              25.9723658,
              43.8371909
            ],
            [
              25.9723654,
              43.8372534
            ],
            [
              25.9724101,
              43.8372536
            ],
            [
              25.9724096,
              43.8373342
            ],
            [
              25.9724658,
              43.8373343
            ],
            [
              25.9724647,
              43.8375169
            ],
            [
              25.9724034,
              43.8375167
            ],
            [
              25.9724026,
              43.8376534
            ],
            [
              25.9724503,
              43.8376535
            ],
            [
              25.9724496,
              43.8377708
            ],
            [
              25.9726739,
              43.8377715
            ],
            [
              25.9726741,
              43.8377337
            ],
            [
              25.9730075,
              43.8377348
            ],
            [
              25.9730071,
              43.837791
            ],
            [
              25.9730899,
              43.8377912
            ],
            [
              25.9730879,
              43.8381183
            ],
            [
              25.9731005,
              43.8381183
            ],
            [
              25.9730993,
              43.838318
            ],
            [
              25.9729684,
              43.8383176
            ],
            [
              25.9729687,
              43.83826
            ],
            [
              25.9729419,
              43.8382599
            ],
            [
              25.9729426,
              43.8381483
            ],
            [
              25.9728838,
              43.8381481
            ],
            [
              25.9728846,
              43.8380105
            ],
            [
              25.9729211,
              43.8380106
            ],
            [
              25.972922,
              43.8378581
            ],
            [
              25.9727917,
              43.8378577
            ],
            [
              25.9727914,
              43.8379035
            ],
            [
              25.9723476,
              43.8379021
            ],
            [
              25.9723478,
              43.837873
            ],
            [
              25.9722737,
              43.8378728
            ],
            [
              25.972275,
              43.8376655
            ],
            [
              25.9722172,
              43.8376653
            ],
            [
              25.9722181,
              43.8375197
            ],
            [
              25.9722572,
              43.8375199
            ],
            [
              25.9722583,
              43.8373445
            ],
            [
              25.9720653,
              43.8373439
            ]
          ]
        ]
      },
      "id": "way/251744604"
    },
    {
      "type": "Feature",
      "properties": {
        "@id": "way/251817339",
        "building": "industrial"
      },
      "geometry": {
        "type": "Polygon",
        "coordinates": [
          [
            [
              25.9730163,
              43.8356202
            ],
            [
              25.973022,
              43.8355299
            ],
            [
              25.9731194,
              43.8355331
            ],
            [
              25.9731209,
              43.8355096
            ],
            [
              25.9730123,
              43.8355061
            ],
            [
              25.9730477,
              43.8349482
            ],
            [
              25.9733941,
              43.8349596
            ],
            [
              25.9733586,
              43.8355193
            ],
            [
              25.9732791,
              43.8355167
            ],
            [
              25.9732778,
              43.8355386
            ],
            [
              25.9733491,
              43.8355409
            ],
            [
              25.9733434,
              43.835631
            ],
            [
              25.9730163,
              43.8356202
            ]
          ]
        ]
      },
      "id": "way/251817339"
    },
    {
      "type": "Feature",
      "properties": {
        "@id": "way/251819404",
        "addr:city": "Русе",
        "addr:housenumber": "4",
        "addr:postcode": "7018",
        "addr:street": "Опълчнеска",
        "building": "apartments"
      },
      "geometry": {
        "type": "Polygon",
        "coordinates": [
          [
            [
              25.9687339,
              43.8364936
            ],
            [
              25.9687434,
              43.8362631
            ],
            [
              25.9689423,
              43.8362674
            ],
            [
              25.9689374,
              43.8363851
            ],
            [
              25.9697872,
              43.8364035
            ],
            [
              25.969786,
              43.8364325
            ],
            [
              25.9698849,
              43.8364347
            ],
            [
              25.969881,
              43.8365279
            ],
            [
              25.9689466,
              43.8365077
            ],
            [
              25.9689451,
              43.8365437
            ],
            [
              25.9688223,
              43.836541
            ],
            [
              25.9688242,
              43.8364956
            ],
            [
              25.9687339,
              43.8364936
            ]
          ]
        ]
      },
      "id": "way/251819404"
    },
    {
      "type": "Feature",
      "properties": {
        "@id": "way/251819405",
        "addr:housenumber": "бл. 310",
        "building": "apartments"
      },
      "geometry": {
        "type": "Polygon",
        "coordinates": [
          [
            [
              25.9689778,
              43.8369051
            ],
            [
              25.9689783,
              43.8368139
            ],
            [
              25.9690519,
              43.8368141
            ],
            [
              25.9690521,
              43.8367799
            ],
            [
              25.9692413,
              43.8367804
            ],
            [
              25.969241,
              43.8368457
            ],
            [
              25.9692868,
              43.8368458
            ],
            [
              25.9692865,
              43.8369062
            ],
            [
              25.9693291,
              43.8369063
            ],
            [
              25.9693266,
              43.8374367
            ],
            [
              25.9692126,
              43.8374364
            ],
            [
              25.9692128,
              43.8373803
            ],
            [
              25.9691419,
              43.8373801
            ],
            [
              25.9691441,
              43.8369055
            ],
            [
              25.9689778,
              43.8369051
            ]
          ]
        ]
      },
      "id": "way/251819405"
    },
    {
      "type": "Feature",
      "properties": {
        "@id": "way/251819406",
        "addr:city": "Русе",
        "addr:housenumber": "2",
        "addr:postcode": "7018",
        "addr:street": "Опълчнеска",
        "building": "apartments"
      },
      "geometry": {
        "type": "Polygon",
        "coordinates": [
          [
            [
              25.9690706,
              43.8361465
            ],
            [
              25.9690743,
              43.8360992
            ],
            [
              25.9690208,
              43.8360971
            ],
            [
              25.9690298,
              43.8359809
            ],
            [
              25.9691158,
              43.8359843
            ],
            [
              25.9691187,
              43.8359459
            ],
            [
              25.9692207,
              43.83595
            ],
            [
              25.9692243,
              43.8359038
            ],
            [
              25.9694609,
              43.8359133
            ],
            [
              25.9694593,
              43.8359341
            ],
            [
              25.9696405,
              43.8359414
            ],
            [
              25.9696383,
              43.8359692
            ],
            [
              25.9697012,
              43.8359717
            ],
            [
              25.9696958,
              43.836041
            ],
            [
              25.9695993,
              43.8360371
            ],
            [
              25.9695974,
              43.8360614
            ],
            [
              25.969543,
              43.8360592
            ],
            [
              25.9695451,
              43.8360319
            ],
            [
              25.9693686,
              43.8360248
            ],
            [
              25.9693666,
              43.8360508
            ],
            [
              25.9693089,
              43.8360485
            ],
            [
              25.9693111,
              43.8360208
            ],
            [
              25.969218,
              43.8360171
            ],
            [
              25.9692111,
              43.8361067
            ],
            [
              25.9691742,
              43.8361053
            ],
            [
              25.9691707,
              43.8361506
            ],
            [
              25.9690706,
              43.8361465
            ]
          ]
        ]
      },
      "id": "way/251819406"
    },
    {
      "type": "Feature",
      "properties": {
        "@id": "way/251819410",
        "addr:city": "Русе",
        "addr:housenumber": "6",
        "addr:postcode": "7018",
        "addr:street": "Опълчнеска",
        "building": "apartments"
      },
      "geometry": {
        "type": "Polygon",
        "coordinates": [
          [
            [
              25.968694,
              43.8373972
            ],
            [
              25.9686919,
              43.8372286
            ],
            [
              25.9689477,
              43.837227
            ],
            [
              25.9689487,
              43.8373133
            ],
            [
              25.9688894,
              43.8373137
            ],
            [
              25.9688904,
              43.837396
            ],
            [
              25.968694,
              43.8373972
            ]
          ]
        ]
      },
      "id": "way/251819410"
    },
    {
      "type": "Feature",
      "properties": {
        "@id": "way/251819412",
        "addr:city": "Русе",
        "addr:housenumber": "1",
        "addr:postcode": "7018",
        "addr:street": "Слави Шкаров",
        "building": "apartments"
      },
      "geometry": {
        "type": "Polygon",
        "coordinates": [
          [
            [
              25.9702795,
              43.8366955
            ],
            [
              25.9702869,
              43.8362985
            ],
            [
              25.9703099,
              43.8362987
            ],
            [
              25.9703125,
              43.8361612
            ],
            [
              25.96995,
              43.8361577
            ],
            [
              25.9699529,
              43.8360045
            ],
            [
              25.9704585,
              43.8360094
            ],
            [
              25.9704457,
              43.8366971
            ],
            [
              25.9702795,
              43.8366955
            ]
          ]
        ]
      },
      "id": "way/251819412"
    },
    {
      "type": "Feature",
      "properties": {
        "@id": "way/257907035",
        "addr:city": "Русе",
        "addr:housenumber": "16",
        "addr:postcode": "7018",
        "addr:street": "Опълчнеска",
        "building": "apartments"
      },
      "geometry": {
        "type": "Polygon",
        "coordinates": [
          [
            [
              25.973021,
              43.8391726
            ],
            [
              25.9730227,
              43.8390815
            ],
            [
              25.9730231,
              43.8390617
            ],
            [
              25.9735355,
              43.8390667
            ],
            [
              25.9735359,
              43.8390476
            ],
            [
              25.9737603,
              43.8390498
            ],
            [
              25.9737601,
              43.8390607
            ],
            [
              25.9738082,
              43.8390612
            ],
            [
              25.9738063,
              43.8391608
            ],
            [
              25.9735409,
              43.8391582
            ],
            [
              25.9735406,
              43.8391776
            ],
            [
              25.973021,
              43.8391726
            ]
          ]
        ]
      },
      "id": "way/257907035"
    },
    {
      "type": "Feature",
      "properties": {
        "@id": "way/257907038",
        "addr:city": "Русе",
        "addr:housenumber": "2",
        "addr:postcode": "7018",
        "addr:street": "Слави Шкаров",
        "building": "apartments"
      },
      "geometry": {
        "type": "Polygon",
        "coordinates": [
          [
            [
              25.97021,
              43.8372806
            ],
            [
              25.9702232,
              43.8370957
            ],
            [
              25.9702105,
              43.8370952
            ],
            [
              25.9702123,
              43.8370706
            ],
            [
              25.9698226,
              43.8370561
            ],
            [
              25.9698273,
              43.8369897
            ],
            [
              25.9698837,
              43.8369918
            ],
            [
              25.9698861,
              43.8369573
            ],
            [
              25.9703042,
              43.8369729
            ],
            [
              25.9703007,
              43.8370211
            ],
            [
              25.970331,
              43.8370223
            ],
            [
              25.9703255,
              43.8370994
            ],
            [
              25.9703575,
              43.8371006
            ],
            [
              25.9703443,
              43.8372856
            ],
            [
              25.97021,
              43.8372806
            ]
          ]
        ]
      },
      "id": "way/257907038"
    },
    {
      "type": "Feature",
      "properties": {
        "@id": "way/257907039",
        "addr:city": "Русе",
        "addr:housenumber": "4",
        "addr:postcode": "7018",
        "addr:street": "Слави Шкаров",
        "building": "apartments"
      },
      "geometry": {
        "type": "Polygon",
        "coordinates": [
          [
            [
              25.9697837,
              43.8372073
            ],
            [
              25.96987,
              43.8372077
            ],
            [
              25.9698697,
              43.837249
            ],
            [
              25.9699237,
              43.8372493
            ],
            [
              25.9699219,
              43.837463
            ],
            [
              25.9699919,
              43.8374633
            ],
            [
              25.9699916,
              43.8375017
            ],
            [
              25.9703978,
              43.8375034
            ],
            [
              25.9703975,
              43.8375354
            ],
            [
              25.9704396,
              43.8375356
            ],
            [
              25.9704391,
              43.8375949
            ],
            [
              25.9699836,
              43.837593
            ],
            [
              25.9699839,
              43.8375554
            ],
            [
              25.9698954,
              43.837555
            ],
            [
              25.9698956,
              43.8375247
            ],
            [
              25.9697811,
              43.8375242
            ],
            [
              25.9697837,
              43.8372073
            ]
          ]
        ]
      },
      "id": "way/257907039"
    },
    {
      "type": "Feature",
      "properties": {
        "@id": "way/257907040",
        "addr:city": "Русе",
        "addr:housenumber": "12",
        "addr:postcode": "7018",
        "addr:street": "Опълчнеска",
        "building": "apartments",
        "building:levels": "6"
      },
      "geometry": {
        "type": "Polygon",
        "coordinates": [
          [
            [
              25.9712243,
              43.8388211
            ],
            [
              25.9712277,
              43.838771
            ],
            [
              25.9711894,
              43.8387696
            ],
            [
              25.9711987,
              43.8386345
            ],
            [
              25.9712969,
              43.838638
            ],
            [
              25.9712981,
              43.8386196
            ],
            [
              25.9713886,
              43.8386228
            ],
            [
              25.9713907,
              43.8385921
            ],
            [
              25.971623,
              43.8386003
            ],
            [
              25.9716268,
              43.8385449
            ],
            [
              25.9716762,
              43.8385467
            ],
            [
              25.9716808,
              43.8384789
            ],
            [
              25.9717784,
              43.8384824
            ],
            [
              25.9717759,
              43.8385179
            ],
            [
              25.9718214,
              43.8385196
            ],
            [
              25.9718129,
              43.8386429
            ],
            [
              25.9717176,
              43.8386395
            ],
            [
              25.9717151,
              43.8386759
            ],
            [
              25.9716236,
              43.8386727
            ],
            [
              25.971621,
              43.8387109
            ],
            [
              25.9714854,
              43.838706
            ],
            [
              25.9714867,
              43.8386879
            ],
            [
              25.9713761,
              43.838684
            ],
            [
              25.9713746,
              43.8387061
            ],
            [
              25.9713418,
              43.838705
            ],
            [
              25.9713336,
              43.838825
            ],
            [
              25.9712243,
              43.8388211
            ]
          ]
        ]
      },
      "id": "way/257907040"
    },
    {
      "type": "Feature",
      "properties": {
        "@id": "way/257907041",
        "addr:city": "Русе",
        "addr:housenumber": "10",
        "addr:postcode": "7018",
        "addr:street": "Опълчнеска",
        "building": "apartments",
        "building:levels": "6"
      },
      "geometry": {
        "type": "Polygon",
        "coordinates": [
          [
            [
              25.9704913,
              43.8385934
            ],
            [
              25.9704947,
              43.8385433
            ],
            [
              25.9704564,
              43.8385419
            ],
            [
              25.9704657,
              43.8384068
            ],
            [
              25.9705639,
              43.8384103
            ],
            [
              25.9705652,
              43.8383919
            ],
            [
              25.9706556,
              43.8383951
            ],
            [
              25.9706577,
              43.8383644
            ],
            [
              25.97089,
              43.8383727
            ],
            [
              25.9708938,
              43.8383172
            ],
            [
              25.9709432,
              43.838319
            ],
            [
              25.9709479,
              43.8382512
            ],
            [
              25.9710454,
              43.8382547
            ],
            [
              25.971043,
              43.8382903
            ],
            [
              25.9710884,
              43.8382919
            ],
            [
              25.97108,
              43.8384153
            ],
            [
              25.9709846,
              43.8384119
            ],
            [
              25.9709821,
              43.8384483
            ],
            [
              25.9708906,
              43.838445
            ],
            [
              25.970888,
              43.8384832
            ],
            [
              25.9707524,
              43.8384784
            ],
            [
              25.9707537,
              43.8384602
            ],
            [
              25.9706431,
              43.8384563
            ],
            [
              25.9706416,
              43.8384784
            ],
            [
              25.9706088,
              43.8384773
            ],
            [
              25.9706006,
              43.8385973
            ],
            [
              25.9704913,
              43.8385934
            ]
          ]
        ]
      },
      "id": "way/257907041"
    },
    {
      "type": "Feature",
      "properties": {
        "@id": "way/257907042",
        "addr:city": "Русе",
        "addr:housenumber": "18",
        "addr:postcode": "7018",
        "addr:street": "Опълчнеска",
        "building": "apartments"
      },
      "geometry": {
        "type": "Polygon",
        "coordinates": [
          [
            [
              25.97404,
              43.8391338
            ],
            [
              25.9741442,
              43.8391371
            ],
            [
              25.9741377,
              43.8392457
            ],
            [
              25.9746338,
              43.8392612
            ],
            [
              25.9746353,
              43.8392367
            ],
            [
              25.9748619,
              43.8392438
            ],
            [
              25.9748634,
              43.8392191
            ],
            [
              25.9751065,
              43.8392267
            ],
            [
              25.9751085,
              43.8391942
            ],
            [
              25.9752822,
              43.8391996
            ],
            [
              25.9752799,
              43.8392377
            ],
            [
              25.9753289,
              43.8392392
            ],
            [
              25.9753244,
              43.839314
            ],
            [
              25.9751002,
              43.839307
            ],
            [
              25.975099,
              43.8393276
            ],
            [
              25.9748894,
              43.8393211
            ],
            [
              25.9748878,
              43.8393474
            ],
            [
              25.9746287,
              43.8393393
            ],
            [
              25.9746266,
              43.8393755
            ],
            [
              25.9741916,
              43.839362
            ],
            [
              25.9741932,
              43.839336
            ],
            [
              25.9740878,
              43.8393327
            ],
            [
              25.9740896,
              43.839302
            ],
            [
              25.9740035,
              43.8392993
            ],
            [
              25.9740095,
              43.8391996
            ],
            [
              25.974036,
              43.8392005
            ],
            [
              25.97404,
              43.8391338
            ]
          ]
        ]
      },
      "id": "way/257907042"
    },
    {
      "type": "Feature",
      "properties": {
        "@id": "way/257907043",
        "addr:city": "Русе",
        "addr:housenumber": "2",
        "addr:postcode": "7018",
        "addr:street": "Изгрев",
        "building": "apartments"
      },
      "geometry": {
        "type": "Polygon",
        "coordinates": [
          [
            [
              25.9759285,
              43.8395082
            ],
            [
              25.9760329,
              43.8395119
            ],
            [
              25.9760256,
              43.8396192
            ],
            [
              25.9765219,
              43.8396368
            ],
            [
              25.9765237,
              43.8396109
            ],
            [
              25.9767501,
              43.8396189
            ],
            [
              25.9767518,
              43.8395931
            ],
            [
              25.9769959,
              43.8396018
            ],
            [
              25.976993,
              43.8396434
            ],
            [
              25.9771391,
              43.8396486
            ],
            [
              25.9771367,
              43.8396836
            ],
            [
              25.9772109,
              43.8396863
            ],
            [
              25.9772055,
              43.8397644
            ],
            [
              25.9769848,
              43.8397565
            ],
            [
              25.9769885,
              43.8397027
            ],
            [
              25.9767778,
              43.8396952
            ],
            [
              25.9767759,
              43.8397226
            ],
            [
              25.9765172,
              43.8397134
            ],
            [
              25.9765146,
              43.8397511
            ],
            [
              25.9760798,
              43.8397356
            ],
            [
              25.9760815,
              43.8397109
            ],
            [
              25.9759759,
              43.8397071
            ],
            [
              25.975978,
              43.8396768
            ],
            [
              25.9758914,
              43.8396737
            ],
            [
              25.9758982,
              43.8395742
            ],
            [
              25.975924,
              43.8395751
            ],
            [
              25.9759285,
              43.8395082
            ]
          ]
        ]
      },
      "id": "way/257907043"
    },
    {
      "type": "Feature",
      "properties": {
        "@id": "way/257907044",
        "addr:city": "Русе",
        "addr:housenumber": "5",
        "addr:postcode": "7018",
        "addr:street": "Слави Шкаров",
        "building": "apartments"
      },
      "geometry": {
        "type": "Polygon",
        "coordinates": [
          [
            [
              25.971943,
              43.8382412
            ],
            [
              25.9718817,
              43.8382265
            ],
            [
              25.9718745,
              43.8382422
            ],
            [
              25.9717064,
              43.8382019
            ],
            [
              25.9717229,
              43.8381659
            ],
            [
              25.9715197,
              43.8381172
            ],
            [
              25.9715234,
              43.8381092
            ],
            [
              25.9712828,
              43.8380515
            ],
            [
              25.9712923,
              43.8380307
            ],
            [
              25.9710878,
              43.8379817
            ],
            [
              25.9711022,
              43.8379504
            ],
            [
              25.9708654,
              43.8378936
            ],
            [
              25.9708967,
              43.8378255
            ],
            [
              25.9709652,
              43.8378419
            ],
            [
              25.9709746,
              43.8378217
            ],
            [
              25.9711495,
              43.8378636
            ],
            [
              25.9711378,
              43.837889
            ],
            [
              25.9713519,
              43.8379403
            ],
            [
              25.9713393,
              43.8379677
            ],
            [
              25.9715629,
              43.8380213
            ],
            [
              25.9715552,
              43.8380379
            ],
            [
              25.9717615,
              43.8380874
            ],
            [
              25.9717575,
              43.8380961
            ],
            [
              25.9719352,
              43.8381387
            ],
            [
              25.9719238,
              43.8381633
            ],
            [
              25.9719734,
              43.8381752
            ],
            [
              25.971943,
              43.8382412
            ]
          ]
        ]
      },
      "id": "way/257907044"
    },
    {
      "type": "Feature",
      "properties": {
        "@id": "way/257907045",
        "addr:city": "Русе",
        "addr:housenumber": "8",
        "addr:postcode": "7018",
        "addr:street": "Опълчнеска",
        "building": "apartments",
        "building:levels": "6"
      },
      "geometry": {
        "type": "Polygon",
        "coordinates": [
          [
            [
              25.96978,
              43.8383113
            ],
            [
              25.9697834,
              43.8382611
            ],
            [
              25.9697451,
              43.8382598
            ],
            [
              25.9697544,
              43.8381246
            ],
            [
              25.9698526,
              43.8381281
            ],
            [
              25.9698538,
              43.8381097
            ],
            [
              25.9699443,
              43.8381129
            ],
            [
              25.9699464,
              43.8380822
            ],
            [
              25.9701787,
              43.8380905
            ],
            [
              25.9701825,
              43.8380351
            ],
            [
              25.9702319,
              43.8380368
            ],
            [
              25.9702365,
              43.837969
            ],
            [
              25.9703341,
              43.8379725
            ],
            [
              25.9703317,
              43.8380081
            ],
            [
              25.9703771,
              43.8380097
            ],
            [
              25.9703686,
              43.8381331
            ],
            [
              25.9702733,
              43.8381297
            ],
            [
              25.9702708,
              43.8381661
            ],
            [
              25.9701793,
              43.8381628
            ],
            [
              25.9701767,
              43.838201
            ],
            [
              25.9700411,
              43.8381962
            ],
            [
              25.9700424,
              43.8381781
            ],
            [
              25.9699318,
              43.8381741
            ],
            [
              25.9699303,
              43.8381963
            ],
            [
              25.9698975,
              43.8381951
            ],
            [
              25.9698893,
              43.8383151
            ],
            [
              25.96978,
              43.8383113
            ]
          ]
        ]
      },
      "id": "way/257907045"
    },
    {
      "type": "Feature",
      "properties": {
        "@id": "way/257907129",
        "building": "commercial"
      },
      "geometry": {
        "type": "Polygon",
        "coordinates": [
          [
            [
              25.9722053,
              43.8387999
            ],
            [
              25.9722021,
              43.83856
            ],
            [
              25.9722018,
              43.8385373
            ],
            [
              25.9725619,
              43.8385347
            ],
            [
              25.9725655,
              43.8387974
            ],
            [
              25.9722053,
              43.8387999
            ]
          ]
        ]
      },
      "id": "way/257907129"
    }
  ]
}